#cP2022  4  8 18  0  0.00000000     576 d+D   IGb14 EXT AIUB
## 2204 496800.00000000   300.00000000 59677 0.7500000000000
+   76   G01G02G03G04G05G06G07G08G09G10G11G12G13G14G15G16G17
+        G18G19G20G22G23G24G25G26G27G28G29G30G31G32R01R02R03
+        R04R05R07R08R09R12R13R14R15R17R18R19R20R21R22R24E01
+        E02E03E04E05E07E08E09E10E11E12E13E14E15E18E19E21E24
+        E25E26E27E30E31E33E34E36  0  0  0  0  0  0  0  0  0
++         6  7  6  7  7  6  7  6  6  6  9  7  7  7  7  7  7
++         8  7  7  7  6  7  6  5  6  7  7  6  7  5  7  7  6
++         7  7  7  6  6  8  9  7  8  8  8  9  9  8  8  8  6
++         6  6  6  6  6  6  6  7  7  7  6  7  6  6  7  6  6
++         7  6  6  6  6  7  6  6  0  0  0  0  0  0  0  0  0
%c M  cc GPS ccc cccc cccc cccc cccc ccccc ccccc ccccc ccccc
%c cc cc ccc ccc cccc cccc cccc cccc ccccc ccccc ccccc ccccc
%f  1.2500000  1.025000000  0.00000000000  0.000000000000000
%f  0.0000000  0.000000000  0.00000000000  0.000000000000000
%i    0    0    0    0      0      0      0      0         0
%i    0    0    0    0      0      0      0      0         0
/* Center for Orbit Determination in Europe (CODE)          
/* Ultra-rapid GRE orbits starting year-day 22098 18 hour   
/* Observed/predicted: 24/24 hours (data used up to 099R)   
/* PCV:IGS14      OL/AL:FES2014b NONE     YN ORB:CoN CLK:BRD
*  2022  4 10  6 50  0.00000000
PG01 -13048.590043  11541.424353  19645.588037    388.471338               P   P
PG02  13896.241750  11779.912040 -18621.466450   -653.021764               P   P
PG03 -23076.540150  13002.823080    610.592656   -200.530042               P   P
PG04 -18363.426466   4072.729806 -18776.228696   -177.114020               P   P
PG05  22108.970211  -1791.874774 -14883.674532    -77.770720               P   P
PG06   5835.571227  24300.091495  -8808.915394    261.428410               P   P
PG07  -5784.459373  24217.569448  -8102.990650    319.698858               P   P
PG08 -23732.889455  -3659.626626  11695.758944    -63.316328               P   P
PG09  -8319.995849  12975.509913 -21695.479505   -344.669043               P   P
PG10   1330.287171 -16958.370349  20467.036119   -374.355522               P   P
PG11  12998.984737  12440.388636 -19547.781140    -50.596644               P   P
PG12  24510.247358  -9232.728195   3709.310946   -198.089166               P   P
PG13  22759.338560  12662.144202   5495.847735    291.585550               P   P
PG14  -3063.589332  17505.262156  19708.269328   -101.367029               P   P
PG15  23888.718839    587.441910  11512.496651    -70.094009               P   P
PG16 -19933.007873  -3987.779409 -17607.079839   -490.113037               P   P
PG17   8030.916511  19016.912949  17114.642100    598.441815               P   P
PG18   6389.207322 -24163.118758  -8833.726773    199.175020               P   P
PG19  14581.022332  19426.962009  10712.819219    142.426990               P   P
PG20  16037.475166   5920.303257 -20266.883621    515.892601               P   P
PG22 -16542.064320 -19020.226640   9065.376909    241.025648               P   P
PG23  12494.336230 -18921.836148  13742.955201    -13.805255               P   P
PG24  14624.484684  -7323.719396  20562.742652    258.495289               P   P
PG25  18001.687655 -17551.297881  -8403.967262    309.989922               P   P
PG26 -10582.210293 -11828.401511 -21401.328912    197.497654               P   P
PG27 -23517.690178 -12768.279557    797.876315    179.313739               P   P
PG28   5697.138828  14202.588313  22229.109150    372.660086               P   P
PG29  10212.581360 -10879.578314 -22027.318534   -501.387948               P   P
PG30   -187.640242  26423.030574    195.021191   -523.067762               P   P
PG31  -7514.799963 -22676.298439 -11222.748440   -172.773000               P   P
PG32 -11632.852085 -18703.567099  15116.939851   -102.314867               P   P
PR01  19339.545936   7887.795869 -14647.619567      7.672235               P   P
PR02  25081.942031   -277.093423   4506.539841    515.089818               P   P
PR03  14966.448871  -8063.518314  19045.245436     54.696097               P   P
PR04  -3239.667952 -10947.865945  22844.181628    136.000580               P   P
PR05 -19722.056266  -8047.688925  14066.798884     90.899643               P   P
PR07 -14426.899333   8219.603209 -19337.114767     33.670105               P   P
PR08   3394.646722  11017.555377 -22689.670958    -64.499676               P   P
PR09 -16095.985180   9065.631234 -17539.089722     48.983640               P   P
PR12   7773.784365   8111.885612  22922.311397     17.837621               P   P
PR13  15696.861244  -8069.883858  18395.912408    -20.633452               P   P
PR14  14816.406428 -20660.144902   2180.111415     76.335855               P   P
PR15   5169.747786 -20346.822002 -14475.021531     96.906905               P   P
PR17   4155.985969 -13489.239295 -21232.914398    516.313978               P   P
PR18  -6335.292236 -22935.595047  -9260.142411    113.014659               P   P
PR19 -12587.246769 -21215.674998   6497.077100   -184.837683               P   P
PR20 -12676.599096  -5032.151300  21572.713447    -68.343675               P   P
PR21  -3227.548848  14689.261360  20606.079828   -292.141840               P   P
PR22   6654.798693  23063.352137   8459.540371   -175.988220               P   P
PR24  12971.762500   3801.214028 -21619.063331     88.390840               P   P
PE01 -14341.079802  -9631.128170 -24041.273102   -613.509986               P   P
PE02  14455.912484   9512.701253  24005.137483    291.871630               P   P
PE03  24217.136709  15484.101875  -7091.727494   -546.448786               P   P
PE04 -27298.673542  -2893.443596 -11060.785826  -1003.326761               P   P
PE05   6817.285728  19223.211301 -21444.603982   -192.237351               P   P
PE07  14297.181397 -11731.107258  23124.117101   -657.105382               P   P
PE08  27198.135087   2593.604204  11410.007888   -509.812038               P   P
PE09 -14005.002518  11766.188287 -23261.259697   -479.152848               P   P
PE10 -13741.457834  11487.664087  23558.326304   -505.776244               P   P
PE11  -9045.985457  21466.847600  18240.165101   3999.600885               P   P
PE12 -16215.358342    149.334731  24762.534138   4670.291754               P   P
PE13   9302.591046 -20947.833780 -18734.895811    427.922169               P   P
PE14 -13774.955476 -20540.324532 -11656.424923  -1808.813587               P   P
PE15  16150.547206    -40.948818 -24799.594030    752.571783               P   P
PE18  26075.078905  15124.382593  -2527.181208  -1582.135702               P   P
PE19 -22697.263344 -16547.189057   9353.264709  -2765.960640               P   P
PE21   3636.383456 -20648.109992 -20898.599676   -727.588689               P   P
PE24 -21444.106735  19947.393901   4368.721300   -552.846793               P   P
PE25  -3918.369750  20740.396772  20755.329858   -569.867573               P   P
PE26  -3483.143515 -29389.060208   -731.766992  -1013.034576               P   P
PE27  20617.767911 -20486.669429  -5571.726505   -272.863609               P   P
PE30  25185.839778  -7301.245720  13701.506526   -418.729453               P   P
PE31 -25325.699794   8278.613533 -12898.312238   -494.835974               P   P
PE33 -13444.622416 -20810.138529  16212.970908   -457.752483               P   P
PE34  13560.108165  20602.581968 -16370.394650   -511.288961               P   P
PE36   2950.562363  29394.368288   1720.841631   -357.569637               P   P
EOF
